start=new Date('2021-12-19T00:00:00.000Z').valueOf();
sats=[{"MEAN_ANOMALY":"299.2728","RA_OF_ASC_NODE":"350.6897","NORAD_CAT_ID":"45078","OBJECT_ID":"2020-006AL","FILE":"3243681","BSTAR":"-0.00005393000000","PERIAPSIS":"546.076","TLE_LINE2":"2 45078  53.0562 350.6897 0001653  60.8426 299.2728 15.06397535104251","TIME_SYSTEM":"UTC","CLASSIFICATION_TYPE":"U","OBJECT_TYPE":"PAYLOAD","SEMIMAJOR_AXIS":"6925.356","TLE_LINE1":"1 45078U 20006AL  21352.29784433 -.00001085  00000-0 -53930-4 0  9995","OBJECT_NAME":"STARLINK-1177","SITE":"AFETR","CENTER_NAME":"EARTH","MEAN_MOTION":"15.06397535","REV_AT_EPOCH":"10425","REF_FRAME":"TEME","EPOCH":"2021-12-18T07:08:53.750112","GP_ID":"191939855","ELEMENT_SET_NO":"999","RCS_SIZE":"LARGE","LAUNCH_DATE":"2020-01-29","ECCENTRICITY":"0.00016530","MEAN_ELEMENT_THEORY":"SGP4","PERIOD":"95.592","ARG_OF_PERICENTER":"60.8426","MEAN_MOTION_DOT":"-0.00001085","EPHEMERIS_TYPE":"0","APOAPSIS":"548.366","DECAY_DATE":null,"INCLINATION":"53.0562","MEAN_MOTION_DDOT":"0.0000000000000","COUNTRY_CODE":"US"},{"SITE":"AFETR","CENTER_NAME":"EARTH","MEAN_MOTION":"15.06404130","REV_AT_EPOCH":"10428","REF_FRAME":"TEME","EPOCH":"2021-12-18T11:23:40.255872","GP_ID":"191940105","RCS_SIZE":"LARGE","ELEMENT_SET_NO":"999","LAUNCH_DATE":"2020-01-29","MEAN_ANOMALY":"303.1641","NORAD_CAT_ID":"45079","RA_OF_ASC_NODE":"349.8934","BSTAR":"0.00006560900000","FILE":"3243681","OBJECT_ID":"2020-006AM","TLE_LINE2":"2 45079  53.0547 349.8934 0001766  56.9517 303.1641 15.06404130104281","PERIAPSIS":"545.978","TIME_SYSTEM":"UTC","OBJECT_TYPE":"PAYLOAD","SEMIMAJOR_AXIS":"6925.336","CLASSIFICATION_TYPE":"U","OBJECT_NAME":"STARLINK-1149","TLE_LINE1":"1 45079U 20006AM  21352.47477148  .00000696  00000-0  65609-4 0  9999","DECAY_DATE":null,"INCLINATION":"53.0547","MEAN_MOTION_DDOT":"0.0000000000000","COUNTRY_CODE":"US","ECCENTRICITY":"0.00017660","MEAN_ELEMENT_THEORY":"SGP4","PERIOD":"95.592","ARG_OF_PERICENTER":"56.9517","MEAN_MOTION_DOT":"0.00000696","EPHEMERIS_TYPE":"0","APOAPSIS":"548.424"},{"SITE":"AFETR","MEAN_MOTION":"15.06396917","EPOCH":"2021-12-18T11:34:16.832928","REV_AT_EPOCH":"10429","REF_FRAME":"TEME","CENTER_NAME":"EARTH","GP_ID":"191940857","RCS_SIZE":"LARGE","ELEMENT_SET_NO":"999","LAUNCH_DATE":"2020-01-29","NORAD_CAT_ID":"45080","RA_OF_ASC_NODE":"349.8573","MEAN_ANOMALY":"301.5961","OBJECT_ID":"2020-006AN","FILE":"3243681","BSTAR":"-0.00006532500000","OBJECT_TYPE":"PAYLOAD","SEMIMAJOR_AXIS":"6925.358","CLASSIFICATION_TYPE":"U","TLE_LINE2":"2 45080  53.0556 349.8573 0001828  58.5207 301.5961 15.06396917104296","PERIAPSIS":"545.957","TIME_SYSTEM":"UTC","OBJECT_NAME":"STARLINK-1153","TLE_LINE1":"1 45080U 20006AN  21352.48213927 -.00001254  00000-0 -65325-4 0  9993","DECAY_DATE":null,"INCLINATION":"53.0556","COUNTRY_CODE":"US","MEAN_MOTION_DDOT":"0.0000000000000","ECCENTRICITY":"0.00018280","ARG_OF_PERICENTER":"58.5207","MEAN_ELEMENT_THEORY":"SGP4","PERIOD":"95.592","APOAPSIS":"548.489","MEAN_MOTION_DOT":"-0.00001254","EPHEMERIS_TYPE":"0"},{"LAUNCH_DATE":"2020-01-29","RCS_SIZE":"LARGE","ELEMENT_SET_NO":"999","GP_ID":"191940608","REV_AT_EPOCH":"10429","EPOCH":"2021-12-18T11:02:26.200608","REF_FRAME":"TEME","MEAN_MOTION":"15.06403937","CENTER_NAME":"EARTH","SITE":"AFETR","TLE_LINE1":"1 45081U 20006AP  21352.46002547  .00001936  00000-0  14885-3 0  9995","OBJECT_NAME":"STARLINK-1151","OBJECT_TYPE":"PAYLOAD","SEMIMAJOR_AXIS":"6925.336","CLASSIFICATION_TYPE":"U","TIME_SYSTEM":"UTC","PERIAPSIS":"545.976","TLE_LINE2":"2 45081  53.0556 349.9683 0001770  56.6173 303.4986 15.06403937104296","FILE":"3243681","BSTAR":"0.00014885000000","OBJECT_ID":"2020-006AP","NORAD_CAT_ID":"45081","RA_OF_ASC_NODE":"349.9683","MEAN_ANOMALY":"303.4986","COUNTRY_CODE":"US","MEAN_MOTION_DDOT":"0.0000000000000","INCLINATION":"53.0556","DECAY_DATE":null,"APOAPSIS":"548.427","EPHEMERIS_TYPE":"0","MEAN_MOTION_DOT":"0.00001936","ARG_OF_PERICENTER":"56.6173","PERIOD":"95.592","MEAN_ELEMENT_THEORY":"SGP4","ECCENTRICITY":"0.00017700"},{"SITE":"AFETR","REF_FRAME":"TEME","REV_AT_EPOCH":"10429","EPOCH":"2021-12-18T12:22:02.500608","MEAN_MOTION":"15.06407011","CENTER_NAME":"EARTH","GP_ID":"191939356","LAUNCH_DATE":"2020-01-29","RCS_SIZE":"LARGE","ELEMENT_SET_NO":"999","RA_OF_ASC_NODE":"349.7046","NORAD_CAT_ID":"45082","MEAN_ANOMALY":"298.9309","FILE":"3243681","BSTAR":"0.00004812300000","OBJECT_ID":"2020-006AQ","SEMIMAJOR_AXIS":"6925.327","OBJECT_TYPE":"PAYLOAD","CLASSIFICATION_TYPE":"U","TIME_SYSTEM":"UTC","TLE_LINE2":"2 45082  53.0542 349.7046 0001869  61.1867 298.9309 15.06407011104297","PERIAPSIS":"545.898","OBJECT_NAME":"STARLINK-1160","TLE_LINE1":"1 45082U 20006AQ  21352.51530672  .00000435  00000-0  48123-4 0  9993","DECAY_DATE":null,"INCLINATION":"53.0542","COUNTRY_CODE":"US","MEAN_MOTION_DDOT":"0.0000000000000","ECCENTRICITY":"0.00018690","ARG_OF_PERICENTER":"61.1867","PERIOD":"95.592","MEAN_ELEMENT_THEORY":"SGP4","APOAPSIS":"548.486","EPHEMERIS_TYPE":"0","MEAN_MOTION_DOT":"0.00000435"},{"SITE":"AFETR","REF_FRAME":"TEME","EPOCH":"2021-12-18T13:07:10.207488","REV_AT_EPOCH":"10402","MEAN_MOTION":"15.06399466","CENTER_NAME":"EARTH","GP_ID":"191939606","LAUNCH_DATE":"2020-01-29","ELEMENT_SET_NO":"999","RCS_SIZE":"LARGE","RA_OF_ASC_NODE":"9.5752","NORAD_CAT_ID":"45083","MEAN_ANOMALY":"295.9865","BSTAR":"0.00004480500000","FILE":"3243681","OBJECT_ID":"2020-006AR","OBJECT_TYPE":"PAYLOAD","SEMIMAJOR_AXIS":"6925.350","CLASSIFICATION_TYPE":"U","TIME_SYSTEM":"UTC","PERIAPSIS":"546.075","TLE_LINE2":"2 45083  53.0562   9.5752 0001646  64.1293 295.9865 15.06399466104023","TLE_LINE1":"1 45083U 20006AR  21352.54664592  .00000386  00000-0  44805-4 0  9994","OBJECT_NAME":"STARLINK-1190","DECAY_DATE":null,"INCLINATION":"53.0562","COUNTRY_CODE":"US","MEAN_MOTION_DDOT":"0.0000000000000","ECCENTRICITY":"0.00016460","ARG_OF_PERICENTER":"64.1293","PERIOD":"95.592","MEAN_ELEMENT_THEORY":"SGP4","APOAPSIS":"548.355","EPHEMERIS_TYPE":"0","MEAN_MOTION_DOT":"0.00000386"},{"OBJECT_NAME":"STARLINK-1173","TLE_LINE1":"1 45084U 20006AS  21352.32917949 -.00001211  00000-0 -62420-4 0  9991","OBJECT_TYPE":"PAYLOAD","SEMIMAJOR_AXIS":"6925.349","CLASSIFICATION_TYPE":"U","TIME_SYSTEM":"UTC","TLE_LINE2":"2 45084  53.0557 330.5450 0001945  57.2948 302.8228 15.06399948104556","PERIAPSIS":"545.867","FILE":"3243681","BSTAR":"-0.00006242000000","OBJECT_ID":"2020-006AS","NORAD_CAT_ID":"45084","RA_OF_ASC_NODE":"330.5450","MEAN_ANOMALY":"302.8228","LAUNCH_DATE":"2020-01-29","ELEMENT_SET_NO":"999","RCS_SIZE":"LARGE","GP_ID":"191940358","EPOCH":"2021-12-18T07:54:01.107936","REF_FRAME":"TEME","REV_AT_EPOCH":"10455","MEAN_MOTION":"15.06399948","CENTER_NAME":"EARTH","SITE":"AFETR","APOAPSIS":"548.561","EPHEMERIS_TYPE":"0","MEAN_MOTION_DOT":"-0.00001211","ARG_OF_PERICENTER":"57.2948","PERIOD":"95.592","MEAN_ELEMENT_THEORY":"SGP4","ECCENTRICITY":"0.00019450","COUNTRY_CODE":"US","MEAN_MOTION_DDOT":"0.0000000000000","INCLINATION":"53.0557","DECAY_DATE":null},{"INCLINATION":"53.0557","DECAY_DATE":null,"MEAN_MOTION_DDOT":"0.0000000000000","COUNTRY_CODE":"US","PERIOD":"95.592","MEAN_ELEMENT_THEORY":"SGP4","ARG_OF_PERICENTER":"55.1060","ECCENTRICITY":"0.00019380","EPHEMERIS_TYPE":"0","MEAN_MOTION_DOT":"0.00001006","APOAPSIS":"548.547","CENTER_NAME":"EARTH","REF_FRAME":"TEME","EPOCH":"2021-12-18T07:48:42.069888","REV_AT_EPOCH":"10455","MEAN_MOTION":"15.06402994","SITE":"AFETR","LAUNCH_DATE":"2020-01-29","RCS_SIZE":"LARGE","ELEMENT_SET_NO":"999","GP_ID":"191941108","FILE":"3243681","OBJECT_ID":"2020-006AT","BSTAR":"0.00008639700000","MEAN_ANOMALY":"305.0111","NORAD_CAT_ID":"45085","RA_OF_ASC_NODE":"330.5514","OBJECT_NAME":"STARLINK-1179","TLE_LINE1":"1 45085U 20006AT  21352.32548692  .00001006  00000-0  86397-4 0  9996","TIME_SYSTEM":"UTC","PERIAPSIS":"545.862","TLE_LINE2":"2 45085  53.0557 330.5514 0001938  55.1060 305.0111 15.06402994104554","OBJECT_TYPE":"PAYLOAD","SEMIMAJOR_AXIS":"6925.339","CLASSIFICATION_TYPE":"U"},{"DECAY_DATE":null,"INCLINATION":"53.0033","COUNTRY_CODE":"US","MEAN_MOTION_DDOT":"0.0000000000000","ECCENTRICITY":"0.00011090","ARG_OF_PERICENTER":"94.9108","MEAN_ELEMENT_THEORY":"SGP4","PERIOD":"95.526","APOAPSIS":"544.780","MEAN_MOTION_DOT":"0.00003956","EPHEMERIS_TYPE":"0","SITE":"AFETR","MEAN_MOTION":"15.07444950","REF_FRAME":"TEME","EPOCH":"2021-12-18T04:46:48.520416","REV_AT_EPOCH":"10446","CENTER_NAME":"EARTH","GP_ID":"191939856","ELEMENT_SET_NO":"999","RCS_SIZE":"LARGE","LAUNCH_DATE":"2020-01-29","NORAD_CAT_ID":"45086","RA_OF_ASC_NODE":"328.5025","MEAN_ANOMALY":"265.2007","FILE":"3243681","BSTAR":"0.00027654000000","OBJECT_ID":"2020-006AU","SEMIMAJOR_AXIS":"6922.148","OBJECT_TYPE":"PAYLOAD","CLASSIFICATION_TYPE":"U","TLE_LINE2":"2 45086  53.0033 328.5025 0001109  94.9108 265.2007 15.07444950104462","PERIAPSIS":"543.245","TIME_SYSTEM":"UTC","OBJECT_NAME":"STARLINK-1181","TLE_LINE1":"1 45086U 20006AU  21352.19917269  .00003956  00000-0  27654-3 0  9998"},{"ARG_OF_PERICENTER":"55.1527","MEAN_ELEMENT_THEORY":"SGP4","PERIOD":"95.592","ECCENTRICITY":"0.00016830","APOAPSIS":"548.376","MEAN_MOTION_DOT":"0.00000819","EPHEMERIS_TYPE":"0","INCLINATION":"53.0555","DECAY_DATE":null,"COUNTRY_CODE":"US","MEAN_MOTION_DDOT":"0.0000000000000","OBJECT_ID":"2020-006AV","FILE":"3243681","BSTAR":"0.00007384600000","NORAD_CAT_ID":"45087","RA_OF_ASC_NODE":"330.0240","MEAN_ANOMALY":"304.9620","TLE_LINE1":"1 45087U 20006AV  21352.44344593  .00000819  00000-0  73846-4 0  9991","OBJECT_NAME":"STARLINK-1185","SEMIMAJOR_AXIS":"6925.345","OBJECT_TYPE":"PAYLOAD","CLASSIFICATION_TYPE":"U","TLE_LINE2":"2 45087  53.0555 330.0240 0001683  55.1527 304.9620 15.06401036104571","PERIAPSIS":"546.045","TIME_SYSTEM":"UTC","MEAN_MOTION":"15.06401036","REV_AT_EPOCH":"10457","EPOCH":"2021-12-18T10:38:33.728352","REF_FRAME":"TEME","CENTER_NAME":"EARTH","SITE":"AFETR","RCS_SIZE":"LARGE","ELEMENT_SET_NO":"999","LAUNCH_DATE":"2020-01-29","GP_ID":"191940106"}];
